IRIDIUM 166             
1 43570U 18061B   23322.42003062  .00000359  00000+0  12124-3 0  9993
2 43570  86.3948  90.3346 0002170  98.8442 261.3000 14.34216640278414
IRIDIUM 158             
1 43571U 18061C   23322.59761847  .00000345  00000+0  11612-3 0  9990
2 43571  86.3952  90.2696 0002369  90.8842 269.2625 14.34220722278408
IRIDIUM 165             
1 43572U 18061D   23322.76254170  .00000353  00000+0  11888-3 0  9990
2 43572  86.3951  90.2290 0002413  91.3327 268.8145 14.34217334278454
IRIDIUM 155             
1 43573U 18061E   23322.65471423  .00000355  00000+0  11962-3 0  9996
2 43573  86.3947  90.1895 0001912  99.2349 260.9063 14.34217757278400
IRIDIUM 154             
1 43574U 18061F   23322.63567087  .00000358  00000+0  12067-3 0  9997
2 43574  86.3952  90.2851 0001902  88.3720 271.7694 14.34214409278457
IRIDIUM 163             
1 43575U 18061G   23322.61665276  .00000354  00000+0  11931-3 0  9990
2 43575  86.3949  90.2378 0002033  89.9947 270.1482 14.34219372278421
IRIDIUM 156             
1 43576U 18061H   23322.59129350  .00000352  00000+0  11872-3 0  9998
2 43576  86.3949  90.2543 0002267  97.6845 262.4608 14.34216311278411
IRIDIUM 164             
1 43577U 18061J   23322.64202024  .00000362  00000+0  12236-3 0  9991
2 43577  86.3951  90.2589 0002252  93.9171 266.2282 14.34217498278462
